{
  "type": "FeatureCollection",
  "features": [
    {
      "type": "Feature",
      "properties": {
        "OBJECT_NAME": "INTELSAT 15 (IS-15)",
        "OBJECT_ID": "2009-067A",
        "EPOCH": "2025-11-30T01:04:38.667072",
        "MEAN_MOTION": 1.00271415,
        "ECCENTRICITY": 0.0002303,
        "INCLINATION": 0.0405,
        "RA_OF_ASC_NODE": 93.0428,
        "ARG_OF_PERICENTER": 151.3433,
        "MEAN_ANOMALY": 286.1316,
        "EPHEMERIS_TYPE": 0,
        "CLASSIFICATION_TYPE": "U",
        "NORAD_CAT_ID": 36106,
        "ELEMENT_SET_NO": 999,
        "REV_AT_EPOCH": 3923,
        "BSTAR": 0,
        "MEAN_MOTION_DOT": -1.64e-06,
        "MEAN_MOTION_DDOT": 0,
        "norad_id": 36106,
        "name": "INTELSAT 15 (IS-15)",
        "group": "intelsat",
        "longitude_deg": NaN,
        "latitude_deg": NaN,
        "alt_km": NaN,
        "orbit_class": "HEO",
        "timestamp": "2025-11-30T09:33:02.502342+00:00"
      },
      "geometry": {
        "type": "Point",
        "coordinates": [
          NaN,
          NaN
        ]
      }
    },
    {
      "type": "Feature",
      "properties": {
        "OBJECT_NAME": "DIRECTV 12",
        "OBJECT_ID": "2009-075A",
        "EPOCH": "2025-11-29T23:39:28.406880",
        "MEAN_MOTION": 1.00272014,
        "ECCENTRICITY": 1.02e-05,
        "INCLINATION": 0.028,
        "RA_OF_ASC_NODE": 100.5105,
        "ARG_OF_PERICENTER": 12.9549,
        "MEAN_ANOMALY": 207.8268,
        "EPHEMERIS_TYPE": 0,
        "CLASSIFICATION_TYPE": "U",
        "NORAD_CAT_ID": 36131,
        "ELEMENT_SET_NO": 999,
        "REV_AT_EPOCH": 4455,
        "BSTAR": 0,
        "MEAN_MOTION_DOT": -8.2e-07,
        "MEAN_MOTION_DDOT": 0,
        "norad_id": 36131,
        "name": "DIRECTV 12",
        "group": "intelsat",
        "longitude_deg": NaN,
        "latitude_deg": NaN,
        "alt_km": NaN,
        "orbit_class": "HEO",
        "timestamp": "2025-11-30T09:33:02.502388+00:00"
      },
      "geometry": {
        "type": "Point",
        "coordinates": [
          NaN,
          NaN
        ]
      }
    },
    {
      "type": "Feature",
      "properties": {
        "OBJECT_NAME": "INTELSAT 16 (IS-16)",
        "OBJECT_ID": "2010-006A",
        "EPOCH": "2025-11-30T01:29:47.840064",
        "MEAN_MOTION": 1.00271558,
        "ECCENTRICITY": 0.0002173,
        "INCLINATION": 0.0099,
        "RA_OF_ASC_NODE": 332.9305,
        "ARG_OF_PERICENTER": 276.2855,
        "MEAN_ANOMALY": 126.2457,
        "EPHEMERIS_TYPE": 0,
        "CLASSIFICATION_TYPE": "U",
        "NORAD_CAT_ID": 36397,
        "ELEMENT_SET_NO": 999,
        "REV_AT_EPOCH": 5765,
        "BSTAR": 0,
        "MEAN_MOTION_DOT": -2.23e-06,
        "MEAN_MOTION_DDOT": 0,
        "norad_id": 36397,
        "name": "INTELSAT 16 (IS-16)",
        "group": "intelsat",
        "longitude_deg": NaN,
        "latitude_deg": NaN,
        "alt_km": NaN,
        "orbit_class": "HEO",
        "timestamp": "2025-11-30T09:33:02.502410+00:00"
      },
      "geometry": {
        "type": "Point",
        "coordinates": [
          NaN,
          NaN
        ]
      }
    },
    {
      "type": "Feature",
      "properties": {
        "OBJECT_NAME": "XM-5",
        "OBJECT_ID": "2010-053A",
        "EPOCH": "2025-11-30T01:18:33.914880",
        "MEAN_MOTION": 1.00271825,
        "ECCENTRICITY": 0.0001525,
        "INCLINATION": 0.0626,
        "RA_OF_ASC_NODE": 271.8522,
        "ARG_OF_PERICENTER": 236.5683,
        "MEAN_ANOMALY": 185.2371,
        "EPHEMERIS_TYPE": 0,
        "CLASSIFICATION_TYPE": "U",
        "NORAD_CAT_ID": 37185,
        "ELEMENT_SET_NO": 999,
        "REV_AT_EPOCH": 5548,
        "BSTAR": 0,
        "MEAN_MOTION_DOT": -2e-08,
        "MEAN_MOTION_DDOT": 0,
        "norad_id": 37185,
        "name": "XM-5",
        "group": "intelsat",
        "longitude_deg": NaN,
        "latitude_deg": NaN,
        "alt_km": NaN,
        "orbit_class": "HEO",
        "timestamp": "2025-11-30T09:33:02.502693+00:00"
      },
      "geometry": {
        "type": "Point",
        "coordinates": [
          NaN,
          NaN
        ]
      }
    },
    {
      "type": "Feature",
      "properties": {
        "OBJECT_NAME": "INTELSAT 17 (IS-17)",
        "OBJECT_ID": "2010-065B",
        "EPOCH": "2025-11-30T02:25:38.586720",
        "MEAN_MOTION": 1.00271411,
        "ECCENTRICITY": 0.0002635,
        "INCLINATION": 0.0105,
        "RA_OF_ASC_NODE": 292.9075,
        "ARG_OF_PERICENTER": 329.2992,
        "MEAN_ANOMALY": 269.445,
        "EPHEMERIS_TYPE": 0,
        "CLASSIFICATION_TYPE": "U",
        "NORAD_CAT_ID": 37238,
        "ELEMENT_SET_NO": 999,
        "REV_AT_EPOCH": 5125,
        "BSTAR": 0,
        "MEAN_MOTION_DOT": 2e-07,
        "MEAN_MOTION_DDOT": 0,
        "norad_id": 37238,
        "name": "INTELSAT 17 (IS-17)",
        "group": "intelsat",
        "longitude_deg": NaN,
        "latitude_deg": NaN,
        "alt_km": NaN,
        "orbit_class": "HEO",
        "timestamp": "2025-11-30T09:33:02.502787+00:00"
      },
      "geometry": {
        "type": "Point",
        "coordinates": [
          NaN,
          NaN
        ]
      }
    },
    {
      "type": "Feature",
      "properties": {
        "OBJECT_NAME": "INTELSAT 28 (IS-28)",
        "OBJECT_ID": "2011-016A",
        "EPOCH": "2025-11-30T01:42:24.132096",
        "MEAN_MOTION": 1.0027058,
        "ECCENTRICITY": 0.0003988,
        "INCLINATION": 1.2888,
        "RA_OF_ASC_NODE": 85.2121,
        "ARG_OF_PERICENTER": 169.7219,
        "MEAN_ANOMALY": 168.179,
        "EPHEMERIS_TYPE": 0,
        "CLASSIFICATION_TYPE": "U",
        "NORAD_CAT_ID": 37392,
        "ELEMENT_SET_NO": 999,
        "REV_AT_EPOCH": 5128,
        "BSTAR": 0,
        "MEAN_MOTION_DOT": -2.03e-06,
        "MEAN_MOTION_DDOT": 0,
        "norad_id": 37392,
        "name": "INTELSAT 28 (IS-28)",
        "group": "intelsat",
        "longitude_deg": NaN,
        "latitude_deg": NaN,
        "alt_km": NaN,
        "orbit_class": "HEO",
        "timestamp": "2025-11-30T09:33:02.502849+00:00"
      },
      "geometry": {
        "type": "Point",
        "coordinates": [
          NaN,
          NaN
        ]
      }
    },
    {
      "type": "Feature",
      "properties": {
        "OBJECT_NAME": "INTELSAT 18 (IS-18)",
        "OBJECT_ID": "2011-056A",
        "EPOCH": "2025-11-29T19:51:57.553344",
        "MEAN_MOTION": 1.00272246,
        "ECCENTRICITY": 0.0001895,
        "INCLINATION": 0.0154,
        "RA_OF_ASC_NODE": 304.3337,
        "ARG_OF_PERICENTER": 303.9394,
        "MEAN_ANOMALY": 298.6944,
        "EPHEMERIS_TYPE": 0,
        "CLASSIFICATION_TYPE": "U",
        "NORAD_CAT_ID": 37834,
        "ELEMENT_SET_NO": 999,
        "REV_AT_EPOCH": 5181,
        "BSTAR": 0,
        "MEAN_MOTION_DOT": 7.4e-07,
        "MEAN_MOTION_DDOT": 0,
        "norad_id": 37834,
        "name": "INTELSAT 18 (IS-18)",
        "group": "intelsat",
        "longitude_deg": NaN,
        "latitude_deg": NaN,
        "alt_km": NaN,
        "orbit_class": "HEO",
        "timestamp": "2025-11-30T09:33:02.503074+00:00"
      },
      "geometry": {
        "type": "Point",
        "coordinates": [
          NaN,
          NaN
        ]
      }
    },
    {
      "type": "Feature",
      "properties": {
        "OBJECT_NAME": "INTELSAT 22 (IS-22)",
        "OBJECT_ID": "2012-011A",
        "EPOCH": "2025-11-30T03:56:38.791104",
        "MEAN_MOTION": 1.00271697,
        "ECCENTRICITY": 0.0001719,
        "INCLINATION": 0.0139,
        "RA_OF_ASC_NODE": 322.9259,
        "ARG_OF_PERICENTER": 291.8408,
        "MEAN_ANOMALY": 305.8032,
        "EPHEMERIS_TYPE": 0,
        "CLASSIFICATION_TYPE": "U",
        "NORAD_CAT_ID": 38098,
        "ELEMENT_SET_NO": 999,
        "REV_AT_EPOCH": 519,
        "BSTAR": 0,
        "MEAN_MOTION_DOT": -3.7e-07,
        "MEAN_MOTION_DDOT": 0,
        "norad_id": 38098,
        "name": "INTELSAT 22 (IS-22)",
        "group": "intelsat",
        "longitude_deg": NaN,
        "latitude_deg": NaN,
        "alt_km": NaN,
        "orbit_class": "HEO",
        "timestamp": "2025-11-30T09:33:02.503291+00:00"
      },
      "geometry": {
        "type": "Point",
        "coordinates": [
          NaN,
          NaN
        ]
      }
    }
  ]
}