INTELSAT 15 (IS-15)     
1 36106U 09067A   25334.04489198 -.00000164  00000+0  00000+0 0  9998
2 36106   0.0405  93.0428 0002303 151.3433 286.1316  1.00271415 39236
DIRECTV 12              
1 36131U 09075A   25333.98574545 -.00000082  00000+0  00000+0 0  9997
2 36131   0.0280 100.5105 0000102  12.9549 207.8268  1.00272014 44559
INTELSAT 16 (IS-16)     
1 36397U 10006A   25334.06235926 -.00000223  00000+0  00000+0 0  9991
2 36397   0.0099 332.9305 0002173 276.2855 126.2457  1.00271558 57650
XM-5                    
1 37185U 10053A   25334.05455920 -.00000002  00000+0  00000+0 0  9991
2 37185   0.0626 271.8522 0001525 236.5683 185.2371  1.00271825 55488
INTELSAT 17 (IS-17)     
1 37238U 10065B   25334.10114105  .00000020  00000+0  00000+0 0  9995
2 37238   0.0105 292.9075 0002635 329.2992 269.4450  1.00271411 51257
INTELSAT 28 (IS-28)     
1 37392U 11016A   25334.07111264 -.00000203  00000+0  00000+0 0  9996
2 37392   1.2888  85.2121 0003988 169.7219 168.1790  1.00270580 51286
INTELSAT 18 (IS-18)     
1 37834U 11056A   25333.82774946  .00000074  00000+0  00000+0 0  9990
2 37834   0.0154 304.3337 0001895 303.9394 298.6944  1.00272246 51815
INTELSAT 22 (IS-22)     
1 38098U 12011A   25334.16433786 -.00000037  00000+0  00000+0 0  9997
2 38098   0.0139 322.9259 0001719 291.8408 305.8032  1.00271697  5194
